GLOBALSTAR M045 [-]     
1 25676U 99019A   23274.74668970 -.00000072  00000+0  19321-3 0  9997
2 25676  51.9961 284.9912 0000910  57.9046 113.2037 12.27016167116979
GLOBALSTAR M019 [-]     
1 25677U 99019B   23274.61748897 -.00000063  00000+0  27594-3 0  9992
2 25677  51.9903  11.7918 0001495 127.7165 340.9735 12.13842543109296
GLOBALSTAR M044 [-]     
1 25678U 99019C   23274.19743615 -.00000080  00000+0  50384-4 0  9992
2 25678  51.9948 246.1339 0006214 276.6888  96.4384 11.90222883 96883
GLOBALSTAR M042 [-]     
1 25679U 99019D   23274.58162793 -.00000048  00000+0  41758-3 0  9996
2 25679  52.0043  14.1747 0003718  96.4301 276.3270 12.22047181108892
GLOBALSTAR M025 [-]     
1 25770U 99031A   23274.41126377 -.00000029  00000+0  11913-2 0  9990
2 25770  51.9798 166.5982 0001032 136.5238  35.4300 11.22545666411541
GLOBALSTAR M049 [-]     
1 25771U 99031B   23274.39714928 -.00000037  00000+0  97672-3 0  9999
2 25771  51.9860 169.9941 0003480  45.4194 314.6886 11.12102010 47910
GLOBALSTAR M047 [-]     
1 25772U 99031C   23274.54620424 -.00000062  00000+0  20422-3 0  9991
2 25772  51.9812 226.3001 0016052 272.0070  87.8897 11.31915777400370
GLOBALSTAR M052 [-]     
1 25773U 99031D   23274.30161177 -.00000020  00000+0  15302-2 0  9995
2 25773  51.9856 287.6714 0002328 216.7729 156.0248 11.15045857408807
